STARLINK-3568           
1 51856U 22022E   26156.21693867 -.00000912  00000+0 -39226-4 0  9994
2 51856  53.1782 346.1775 0001234 119.5482 240.5633 15.08831843236269
STARLINK-3571           
1 51857U 22022F   26155.74220051  .00001479  00000+0  11100-3 0  9990
2 51857  53.1882 348.3121 0002057  95.3788 264.7438 15.08854394236160
STARLINK-3560           
1 51859U 22022H   26156.22520938  .00001212  00000+0  94219-4 0  9991
2 51859  53.1843 336.1398 0000863  84.2802 275.8288 15.08845708236375
STARLINK-3559           
1 51860U 22022J   26156.23161733 -.00000117  00000+0  10784-4 0  9997
2 51860  53.1872 336.1006 0001896  76.6666 283.4538 15.08839766236331
STARLINK-3508           
1 51862U 22022L   26156.22795580 -.00001272  00000+0 -61864-4 0  9990
2 51862  53.1866 336.1200 0001793  64.5783 295.5395 15.08824378236387
STARLINK-3555           
1 51863U 22022M   26155.74586056 -.00004691  00000+0 -27687-3 0  9995
2 51863  53.1802 338.2828 0002039 111.3345 248.7864 15.08832941236258
STARLINK-3548           
1 51864U 22022N   26156.21312331  .00013808  00000+0  88161-3 0  9994
2 51864  53.1872 336.1060 0001816  61.6744 298.4431 15.08935896236371
STARLINK-3503           
1 51865U 22022P   26156.20217273  .00002006  00000+0  14406-3 0  9992
2 51865  53.1790 336.2279 0001384  39.1565 320.9527 15.08845334236324
STARLINK-3553           
1 51866U 22022Q   26156.19944343 -.00000855  00000+0 -35672-4 0  9997
2 51866  53.1797 336.1057 0001320 113.0192 247.0939 15.08828599236323
STARLINK-3590           
1 51867U 22022R   26156.19850147 -.00000522  00000+0 -14683-4 0  9996
2 51867  53.1799 336.2537 0001410 116.3258 243.7878 15.08832642236328
STARLINK-3588           
1 51869U 22022T   26156.12122333 -.00000176  00000+0  70548-5 0  9997
2 51869  53.1768 336.5980 0001648  53.4047 306.7096 15.08823905236314
STARLINK-3591           
1 51870U 22022U   26156.19482097 -.00000444  00000+0 -97903-5 0  9995
2 51870  53.1799 336.2664 0001113 101.0712 259.0405 15.08833162236378
STARLINK-3567           
1 51871U 22022V   26156.11754317 -.00000076  00000+0  13335-4 0  9991
2 51871  53.1771 336.6205 0001390  45.2922 314.8183 15.08832554236426
STARLINK-3554           
1 51872U 22022W   26156.19114132 -.00000264  00000+0  14812-5 0  9996
2 51872  53.1780 336.2867 0001514 135.0905 225.0209 15.08831938236320
STARLINK-3582           
1 51873U 22022X   26156.17437735  .00006513  00000+0  29795-3 0  9998
2 51873  53.2118 325.9159 0004418 147.7861 212.3407 15.21732775236472
STARLINK-3574           
1 51874U 22022Y   26155.71639915 -.00000834  00000+0 -34306-4 0  9999
2 51874  53.1868 338.4222 0001394  75.3329 284.7817 15.08858258236242
STARLINK-3585           
1 51875U 22022Z   26156.22421896  .00004860  00000+0  32297-3 0  9991
2 51875  53.1862 336.0452 0001120  75.4279 284.6837 15.08871581236333
STARLINK-3583           
1 51876U 22022AA  26155.71273659  .00002697  00000+0  18747-3 0  9997
2 51876  53.1873 338.4310 0001436 101.7968 258.3185 15.08845387236253
STARLINK-3556           
1 51877U 22022AB  26155.69526166 -.00000220  00000+0  43004-5 0  9996
2 51877  53.1816 328.5082 0001316  57.3521 302.7597 15.08833314236387
STARLINK-3572           
1 51879U 22022AD  26155.75413875 -.00000190  00000+0  61568-5 0  9998
2 51879  53.1811 328.2498 0000963  84.2059 275.9043 15.08834043236392
STARLINK-3566           
1 51880U 22022AE  26156.23894356 -.00000005  00000+0  17789-4 0  9991
2 51880  53.1887 335.7843 0001127  82.0246 278.0874 15.08837231236333
STARLINK-3504           
1 51881U 22022AF  26156.07798065 -.00000341  00000+0 -33318-5 0  9995
2 51881  53.1808 326.7964 0001054  67.0429 293.0674 15.08834146236490
STARLINK-3570           
1 51882U 22022AG  26155.69253759  .00000005  00000+0  18384-4 0  9999
2 51882  53.1793 328.5404 0001079  75.9307 284.1805 15.08835988236439
STARLINK-3576           
1 51883U 22022AH  26155.69160535  .00000322  00000+0  38365-4 0  9992
2 51883  53.1898 328.7043 0003717  35.3371 324.7866 15.08837376236373
STARLINK-3577           
1 51884U 22022AJ  26155.75044236  .00002816  00000+0  19481-3 0  9996
2 51884  53.1802 328.2752 0001558 128.3609 231.7523 15.08865016236479
STARLINK-3584           
1 51885U 22022AK  26156.19942051  .00001164  00000+0  91195-4 0  9996
2 51885  53.1792 326.2478 0001433  72.9701 287.1447 15.08838275236455
