OBJECT_NAME,OBJECT_ID,EPOCH,MEAN_MOTION,ECCENTRICITY,INCLINATION,RA_OF_ASC_NODE,ARG_OF_PERICENTER,MEAN_ANOMALY,EPHEMERIS_TYPE,CLASSIFICATION_TYPE,NORAD_CAT_ID,ELEMENT_SET_NO,REV_AT_EPOCH,BSTAR,MEAN_MOTION_DOT,MEAN_MOTION_DDOT
STARLINK-3568,2022-022E,2026-06-05T05:12:23.501088,15.08831843,.0001234,53.1782,346.1775,119.5482,240.5633,0,U,51856,999,23626,-.39226E-4,-.912E-5,0
STARLINK-3571,2022-022F,2026-06-04T17:48:46.124064,15.08854394,.0002057,53.1882,348.3121,95.3788,264.7438,0,U,51857,999,23616,.111E-3,.1479E-4,0
STARLINK-3560,2022-022H,2026-06-05T05:24:18.090432,15.08845708,.0000863,53.1843,336.1398,84.2802,275.8288,0,U,51859,999,23637,.94219E-4,.1212E-4,0
STARLINK-3559,2022-022J,2026-06-05T05:33:31.737312,15.08839766,.0001896,53.1872,336.1006,76.6666,283.4538,0,U,51860,999,23633,.10784E-4,-.117E-5,0
STARLINK-3508,2022-022L,2026-06-05T05:28:15.381120,15.08824378,.0001793,53.1866,336.1200,64.5783,295.5395,0,U,51862,999,23638,-.61864E-4,-.1272E-4,0
STARLINK-3555,2022-022M,2026-06-04T17:54:02.352384,15.08832941,.0002039,53.1802,338.2828,111.3345,248.7864,0,U,51863,999,23625,-.27687E-3,-.4691E-4,0
STARLINK-3548,2022-022N,2026-06-05T05:06:53.853984,15.08935896,.0001816,53.1872,336.1060,61.6744,298.4431,0,U,51864,999,23637,.88161E-3,.13808E-3,0
STARLINK-3503,2022-022P,2026-06-05T04:51:07.723872,15.08845334,.0001384,53.1790,336.2279,39.1565,320.9527,0,U,51865,999,23632,.14406E-3,.2006E-4,0
STARLINK-3553,2022-022Q,2026-06-05T04:47:11.912352,15.08828599,.000132,53.1797,336.1057,113.0192,247.0939,0,U,51866,999,23632,-.35672E-4,-.855E-5,0
STARLINK-3590,2022-022R,2026-06-05T04:45:50.527008,15.08832642,.000141,53.1799,336.2537,116.3258,243.7878,0,U,51867,999,23632,-.14683E-4,-.522E-5,0
STARLINK-3588,2022-022T,2026-06-05T02:54:33.695712,15.08823905,.00016488,53.1768,336.5980,53.4047,306.7096,0,U,51869,999,23631,.7054788E-5,-.176E-5,0
STARLINK-3591,2022-022U,2026-06-05T04:40:32.531808,15.08833162,.0001113,53.1799,336.2664,101.0712,259.0405,0,U,51870,999,23637,-.97903E-5,-.444E-5,0
STARLINK-3567,2022-022V,2026-06-05T02:49:15.729888,15.08832554,.00013905,53.1771,336.6205,45.2922,314.8183,0,U,51871,999,23642,.13335294E-4,-.76E-6,0
STARLINK-3554,2022-022W,2026-06-05T04:35:14.610048,15.08831938,.0001514,53.1780,336.2867,135.0905,225.0209,0,U,51872,999,23632,.14812E-5,-.264E-5,0
STARLINK-3582,2022-022X,2026-06-05T04:11:06.203040,15.21732775,.0004418,53.2118,325.9159,147.7861,212.3407,0,U,51873,999,23647,.29795E-3,.6513E-4,0
STARLINK-3574,2022-022Y,2026-06-04T17:11:36.886560,15.08858258,.00013948,53.1868,338.4222,75.3329,284.7817,0,U,51874,999,23624,-.34306116E-4,-.834E-5,0
STARLINK-3585,2022-022Z,2026-06-05T05:22:52.518144,15.08871581,.000112,53.1862,336.0452,75.4279,284.6837,0,U,51875,999,23633,.32297E-3,.486E-4,0
STARLINK-3583,2022-022AA,2026-06-04T17:06:20.441376,15.08845387,.00014365,53.1873,338.4310,101.7968,258.3185,0,U,51876,999,23625,.18746568E-3,.2697E-4,0
STARLINK-3556,2022-022AB,2026-06-04T16:41:10.607424,15.08833314,.0001316,53.1816,328.5082,57.3521,302.7597,0,U,51877,999,23638,.43004E-5,-.22E-5,0
STARLINK-3572,2022-022AD,2026-06-04T18:05:57.588000,15.08834043,.0000963,53.1811,328.2498,84.2059,275.9043,0,U,51879,999,23639,.6156799E-5,-.19E-5,0
STARLINK-3566,2022-022AE,2026-06-05T05:44:04.723584,15.08837231,.0001127,53.1887,335.7843,82.0246,278.0874,0,U,51880,999,23633,.17789E-4,-.5E-7,0
STARLINK-3504,2022-022AF,2026-06-05T01:52:17.528160,15.08834146,.00010543,53.1808,326.7964,67.0429,293.0674,0,U,51881,999,23649,-.3331794E-5,-.341E-5,0
STARLINK-3570,2022-022AG,2026-06-04T16:37:15.247776,15.08835988,.0001079,53.1793,328.5404,75.9307,284.1805,0,U,51882,999,23643,.18384E-4,.5E-7,0
STARLINK-3576,2022-022AH,2026-06-04T16:35:54.702240,15.08837376,.0003717,53.1898,328.7043,35.3371,324.7866,0,U,51883,999,23637,.38365E-4,.322E-5,0
STARLINK-3577,2022-022AJ,2026-06-04T18:00:38.219904,15.08865016,.00015586,53.1802,328.2752,128.3609,231.7523,0,U,51884,999,23647,.19480613E-3,.2816E-4,0
STARLINK-3584,2022-022AK,2026-06-05T04:47:09.932064,15.08838275,.0001433,53.1792,326.2478,72.9701,287.1447,0,U,51885,999,23645,.91195E-4,.1164E-4,0
